# From MPC106342
C/1995 O1 (Hale-Bopp),e,89.0180,283.3014,130.5441,179.1392,0.0004111,0.99494549,0.0000,03/29.7353/1997,2000,g -2.0,4.0
# From NK 1615
P/1996 R2 (Lagerkvist),e,2.6003,40.0302,333.3116,3.775036,0.1343762,0.31405611,92.2286,12/29.0/2020,2000,g 11.5,4.0
# From MPC 30063
P/1997 B1 (Kobayashi),e,12.3395,328.8838,183.3568,8.568771,0.0392940,0.76012178,342.1291,12/29.0/2020,2000,g 15.0,2.0
# From MPC 75703
P/1998 VS24 (LINEAR),e,5.0253,159.0316,244.6675,4.529404,0.1022451,0.24201289,110.0162,12/29.0/2020,2000,g 13.0,2.0
# From NK 731
P/1999 RO28 (LONEOS),e,7.5668,137.8837,231.2681,3.426763,0.1553739,0.67207884,85.7475,12/29.0/2020,2000,g 20.0,2.0
# From MPC 75704
P/1999 XN120 (Catalina),e,5.0297,285.2961,161.8912,4.179025,0.1153697,0.21031302,149.6888,12/29.0/2020,2000,g 13.5,2.0
# From NK 744
P/2000 R2 (LINEAR),e,11.6847,160.2931,176.5191,3.466167,0.1527319,0.53157387,85.6176,12/29.0/2020,2000,g 18.0,4.0
# From MPC 43019
P/2001 H5 (NEAT),e,8.3671,328.6844,224.8669,6.098094,0.0654505,0.59863689,124.2092,12/29.0/2020,2000,g 12.0,4.0
# From MPC 75704
P/2001 Q6 (NEAT),e,56.9035,22.1339,42.9425,7.951153,0.0439601,0.82283345,309.1361,12/29.0/2020,2000,g 13.5,4.0
# From MPC 47727
P/2002 EJ57 (LINEAR),e,4.9761,330.3279,167.3663,6.472887,0.0598490,0.59272176,55.3355,12/29.0/2020,2000,g 12.5,4.0
# From MPC109588
P/2002 T6 (NEAT-LINEAR),e,10.8336,206.4210,219.6111,7.672351,0.0463779,0.56014831,299.5966,12/29.0/2020,2000,g 10.5,4.0
# From MPC 75007
C/2002 VQ94 (LINEAR),e,70.5724,35.0180,100.1616,185.7950,0.0003892,0.96321868,2.1209,12/29.0/2020,2000,g  9.5,2.0
# From MPC 50354
P/2003 F2 (NEAT),e,11.6046,359.0676,191.9460,6.491683,0.0595893,0.54226175,24.5888,12/29.0/2020,2000,g 16.5,2.0
# From MPC 50139
P/2003 QX29 (NEAT),e,11.3898,264.5860,37.4162,8.031886,0.0432990,0.47298590,287.2589,12/29.0/2020,2000,g  8.5,4.0
# From MPC105235
P/2003 T12 (SOHO),e,11.0172,174.5735,219.7676,2.586158,0.2369853,0.76965452,55.9609,12/29.0/2020,2000,g 17.0,4.0
# From MPC 82312
P/2004 A1 (LONEOS),e,10.5516,124.8471,21.4018,7.956594,0.0439150,0.30934987,262.7003,12/29.0/2020,2000,g  6.5,4.0
# From MPC 54558
P/2004 DO29 (Spacewatch-LINEAR),e,14.5318,147.3782,40.7169,7.283118,0.0501451,0.44129569,297.1347,12/29.0/2020,2000,g 13.5,2.0
# From MPC 54823
P/2004 FY140 (LINEAR),e,2.1348,326.7605,242.4539,4.901925,0.0908143,0.16855917,180.1984,12/29.0/2020,2000,g 12.5,2.0
# From MPC 53304
P/2004 R3 (LINEAR-NEAT),e,12.8251,305.4810,38.5340,4.796598,0.0938219,0.26131562,334.5223,12/29.0/2020,2000,g 14.5,4.0
# From MPC 55521
P/2004 V3 (Siding Spring),e,50.4343,356.1171,322.3076,7.143607,0.0516212,0.44633639,305.3868,12/29.0/2020,2000,g 11.5,4.0
# From MPC 75705
P/2004 V5 (LINEAR-Hill),e,19.3446,47.7724,87.7720,7.976457,0.0437511,0.44353436,253.9263,12/29.0/2020,2000,g  8.0,4.0
# From MPEC 2020-X09
P/2005 CR16,e,9.3936,139.9819,313.1078,6.627731,0.0577639,0.51009918,349.7968,12/29.0/2020,2000,g 12.5,4.0
# From MPC 54164
P/2005 E1 (Tubbiolo),e,4.2637,335.5707,194.1147,7.037909,0.0527884,0.37517015,306.9517,12/29.0/2020,2000,g 10.0,4.0
# From MPC 54823
P/2005 GF8 (LONEOS),e,1.1933,314.8317,285.0373,5.857355,0.0695267,0.51802523,31.7521,12/29.0/2020,2000,g 11.5,4.0
# From MPC 79019
P/2005 J1 (McNaught),e,31.7659,268.8045,338.9588,3.569895,0.1461238,0.56984031,118.1145,12/29.0/2020,2000,g 16.5,4.0
# From MPC 74246
P/2005 L1 (McNaught),e,7.7386,138.2478,149.7029,3.975257,0.1243530,0.20938546,321.6197,12/29.0/2020,2000,g  9.5,4.0
# From MPC 75706
P/2005 S2 (Skiff),e,3.1357,161.1980,229.1540,8.017016,0.0434195,0.19697171,232.2720,12/29.0/2020,2000,g  7.5,4.0
# From MPC 75706
P/2005 SB216 (LONEOS),e,24.0746,1.2297,83.3883,7.127898,0.0517919,0.46338023,264.2998,12/29.0/2020,2000,g 12.0,2.0
# From MPC 55717
P/2005 T2 (Christensen),e,8.2927,260.1574,58.8128,3.845951,0.1306768,0.41639579,34.5811,12/29.0/2020,2000,g 14.5,4.0
# From MPC 73461
P/2005 T3 (Read),e,6.2245,27.7371,6.9817,7.578465,0.0472424,0.17402468,262.5613,12/29.0/2020,2000,g  9.0,4.0
# From MPC 73461
P/2005 T4 (SWAN),e,160.1863,25.6837,41.5879,9.361009,0.0344128,0.92989022,191.6900,12/29.0/2020,2000,g 15.0,4.0
# From MPC 75706
P/2005 T5 (Broughton),e,21.3539,57.0063,304.5302,7.291323,0.0500604,0.55204996,278.4711,12/29.0/2020,2000,g 11.0,4.0
# From MPC 56954
P/2005 W3 (Kowalski),e,16.4184,210.0886,200.6932,6.331124,0.0618704,0.54346506,343.5567,12/29.0/2020,2000,g 12.0,4.0
# From MPC 75706
P/2005 Y2 (McNaught),e,19.0888,94.5031,194.0133,6.386384,0.0610691,0.47063416,4.2371,12/29.0/2020,2000,g  9.0,4.0
# From MPC 56954
P/2006 F4 (Spacewatch),e,12.4054,183.8667,31.1341,3.526197,0.1488484,0.33947100,76.5658,12/29.0/2020,2000,g 15.0,4.0
# From MPC 75707
P/2006 HR30 (Siding Spring),e,31.8296,309.9030,117.2893,7.811280,0.0451462,0.84205873,231.5695,12/29.0/2020,2000,g 11.0,4.0
# From MPC 75707
P/2006 S4 (Christensen),e,39.5347,36.0929,305.1479,6.312005,0.0621517,0.50804378,336.2776,12/29.0/2020,2000,g 11.0,4.0
# From MPC 75707
P/2007 A2 (Christensen),e,26.4877,300.9065,186.7551,6.325183,0.0619576,0.55759082,316.6062,12/29.0/2020,2000,g 13.5,4.0
# From MPC 59319
P/2007 B1 (Christensen),e,12.3761,77.6663,46.7509,5.819641,0.0702037,0.58092784,358.0599,12/29.0/2020,2000,g 13.5,4.0
# From MPC 75707
P/2007 C2 (Catalina),e,8.6548,275.6100,179.9210,6.993664,0.0532901,0.47016512,257.9638,12/29.0/2020,2000,g 10.0,4.0
# From MPC 84315
C/2007 D1 (LINEAR),e,41.5015,171.1826,340.0910,1527,0.0000165,0.99421660,0.0000,06/09.5196/2007,2000,g  3.5,4.0
# From MPC 82314
P/2007 K2 (Gibbs),e,7.6359,188.6463,347.4652,7.263060,0.0503529,0.68330925,249.5527,12/29.0/2020,2000,g 14.0,4.0
# From MPC 60925
P/2007 Q2 (Gilmore),e,10.2025,172.1599,162.7760,5.654425,0.0733029,0.67023033,2.3477,12/29.0/2020,2000,g 16.0,4.0
# From MPC 75708
P/2007 R4 (Garradd),e,20.2241,87.2222,282.6471,5.928181,0.0682845,0.67002909,336.4529,12/29.0/2020,2000,g 14.5,4.0
# From MPC 73462
P/2007 S1 (Zhao),e,5.9633,141.3779,245.7250,3.813233,0.1323622,0.33960832,274.1568,12/29.0/2020,2000,g 13.0,4.0
# From MPC 61994
P/2007 T2 (Kowalski),e,9.7455,3.3749,359.6359,3.047157,0.1852942,0.78525315,164.7733,12/29.0/2020,2000,g 18.5,4.0
# From MPC 75708
P/2008 CL94 (Lemmon),e,8.3472,33.3301,80.5124,6.161075,0.0644495,0.12028417,342.8113,12/29.0/2020,2000,g  8.0,4.0
# From MPC 75709
P/2008 L2 (Hill),e,25.8573,218.0056,141.2122,6.028676,0.0665842,0.61304982,302.5227,12/29.0/2020,2000,g 12.5,4.0
# From MPC 64114
P/2008 O3 (Boattini),e,32.2523,47.5966,341.0881,8.222958,0.0417986,0.69511788,192.4056,12/29.0/2020,2000,g 13.0,4.0
# From MPC 75709
P/2008 QP20 (LINEAR-Hill),e,7.5219,322.0762,75.6105,3.552786,0.1471806,0.49221002,305.6715,12/29.0/2020,2000,g 15.5,4.0
# From MPC 66204
P/2008 WZ96 (LINEAR),e,7.1116,56.4762,341.8727,3.490182,0.1511583,0.47030267,323.6185,12/29.0/2020,2000,g 13.5,4.0
# From MPC 75710
P/2008 Y3 (McNaught),e,38.7633,262.7916,238.2605,8.046051,0.0431847,0.44551830,189.4313,12/29.0/2020,2000,g  8.5,4.0
# From MPC 75710
P/2009 B1 (Boattini),e,22.2192,297.0915,128.8922,6.736043,0.0563763,0.63466797,246.5558,12/29.0/2020,2000,g 13.0,4.0
# From MPC 66466
C/2009 G1 (STEREO),e,108.7482,120.4323,175.3930,427.8918,0.0001114,0.99734745,0.0000,04/15.2650/2009,2000,g  9.0,4.0
# From MPC 75710
P/2009 O3 (Hill),e,16.2656,183.7141,154.3923,7.770417,0.0455027,0.68757293,192.9545,12/29.0/2020,2000,g 12.5,4.0
# From MPC 98557
P/2009 Q1 (Hill),e,14.5055,173.9591,157.1252,5.520255,0.0759916,0.49479416,321.1566,12/29.0/2020,2000,g 11.5,4.0
# From MPC 68902
P/2009 Q5 (McNaught),e,40.9755,160.2647,209.0199,7.437806,0.0485889,0.60872530,200.9230,12/29.0/2020,2000,g 10.0,4.0
# From MPC112389
P/2009 T2 (La Sagra),e,27.5484,215.7947,216.4160,7.724231,0.0459115,0.76511364,184.5492,12/29.0/2020,2000,g 14.0,4.0
# From MPC 75711
P/2009 U4 (McNaught),e,10.0806,55.3563,259.8393,5.083870,0.0859830,0.67612118,357.0676,12/29.0/2020,2000,g 14.0,4.0
# From MPC105235
P/2009 WX51 (Catalina),e,9.5955,31.6829,118.0733,3.080601,0.1822850,0.74030606,7.7721,12/29.0/2020,2000,g 19.0,2.0
# From MPC 74247
P/2009 Y2 (Kowalski),e,29.9296,262.0241,172.1668,6.549210,0.0588059,0.63588303,232.5579,12/29.0/2020,2000,g 13.0,4.0
# From MPC 75711
P/2010 A3 (Hill),e,14.8597,64.0490,41.9733,6.075900,0.0658094,0.73330763,258.9437,12/29.0/2020,2000,g 14.0,4.0
# From MPC 72851
P/2010 A5 (LINEAR),e,5.7978,277.6634,307.0888,5.083242,0.0859989,0.66500837,334.8461,12/29.0/2020,2000,g 13.0,4.0
# From MPC105235
P/2010 B2 (WISE),e,8.9307,0.8478,155.9187,3.109841,0.1797202,0.47987539,4.3912,12/29.0/2020,2000,g 17.0,4.0
# From MPC 75008
P/2010 C1 (Scotti),e,9.1282,141.8861,3.7636,7.102936,0.0520652,0.25863561,211.4481,12/29.0/2020,2000,g  9.5,4.0
# From MPC 75008
P/2010 D2 (WISE),e,57.0847,319.8919,120.0863,6.715852,0.0566308,0.45087108,224.7715,12/29.0/2020,2000,g 16.0,4.0
# From MPC 75009
P/2010 E2 (Jarnac),e,15.4043,177.8248,8.3696,8.638130,0.0388217,0.72018935,152.2871,12/29.0/2020,2000,g 14.0,4.0
# From MPC 72851
P/2010 H2 (Vales),e,14.2731,64.2049,128.1837,3.834269,0.1312744,0.19569607,158.4402,12/29.0/2020,2000,g  6.0,4.0
# From MPC 70361
P/2010 H3 (SOHO),e,23.0881,77.1025,26.1373,3.059360,0.1841867,0.98548582,0.0000,02/07.9647/2021,2000,g 20.0,2.0
# From MPC 73463
P/2010 H4 (Scotti),e,2.3189,44.7460,179.5585,6.589943,0.0582615,0.26749956,224.0121,12/29.0/2020,2000,g 10.5,4.0
# From MPC 74637
P/2010 H5 (Scotti),e,14.0665,24.8085,175.2706,7.159187,0.0514527,0.15359601,201.5317,12/29.0/2020,2000,g 13.0,2.0
# From MPC 98558
P/2010 J3 (McMillan),e,13.2889,106.4104,157.5873,8.970599,0.0366836,0.72720749,138.4430,12/29.0/2020,2000,g 11.0,4.0
# From MPC 84315
P/2010 JC81 (WISE),e,38.7236,30.8432,12.4405,8.110926,0.0426676,0.77673970,151.1193,12/29.0/2020,2000,g  9.0,4.0
# From MPC 74248
P/2010 T2 (PANSTARRS),e,7.9115,59.0185,353.6382,5.516569,0.0760677,0.32149289,270.0618,12/29.0/2020,2000,g 11.5,4.0
# From MPC 98558
P/2010 TO20 (LINEAR-Grauer),e,2.4791,43.2971,266.7451,5.829396,0.0700275,0.05464217,311.6612,12/29.0/2020,2000,g  9.0,4.0
# From MPC 82316
